ECHOSTAR 7              
1 27378U 02006A   17345.64073716 -.00000006  00000-0  00000-0 0  9996
2 27378   0.0096 343.4232 0001111 277.8015 291.1661  1.00271022 19460
